{
  "norad_id": 52704,
  "name": "STARLINK-3999",
  "history": [
    {
      "epoch": "2026-03-28T04:05:19.919616Z",
      "apogee_km": 540.858004231487,
      "perigee_km": 538.6388849385721,
      "latitude_deg": -5.685213357980033e-05,
      "longitude_deg": 164.23049990775684,
      "height_km": 540.7030261442052,
      "semi_major_axis_km": 6917.885444585029,
      "eccentricity": 0.00016039,
      "inclination_deg": 53.2194,
      "raan_deg": 51.1582,
      "arg_perigee_deg": 93.0478,
      "mean_anomaly_deg": 267.0697,
      "mean_motion_rev_day": 15.08838346
    },
    {
      "epoch": "2026-03-29T03:56:04.415136Z",
      "apogee_km": 540.7877195088058,
      "perigee_km": 538.5477343382281,
      "latitude_deg": -4.211395272553251e-06,
      "longitude_deg": 161.10503298285806,
      "height_km": 540.7137910733982,
      "semi_major_axis_km": 6917.804726923517,
      "eccentricity": 0.0001619,
      "inclination_deg": 53.2196,
      "raan_deg": 46.6974,
      "arg_perigee_deg": 97.7204,
      "mean_anomaly_deg": 262.3972,
      "mean_motion_rev_day": 15.08864754
    },
    {
      "epoch": "2026-03-30T03:46:54.109344Z",
      "apogee_km": 540.6449226163022,
      "perigee_km": 538.908526271467,
      "latitude_deg": 2.49549308207962e-06,
      "longitude_deg": 157.9589122482874,
      "height_km": 540.6704367614291,
      "semi_major_axis_km": 6917.913724443884,
      "eccentricity": 0.0001255,
      "inclination_deg": 53.2198,
      "raan_deg": 42.2377,
      "arg_perigee_deg": 89.8423,
      "mean_anomaly_deg": 270.2713,
      "mean_motion_rev_day": 15.08829094
    },
    {
      "epoch": "2026-03-30T13:19:12.581472Z",
      "apogee_km": 540.6592525876258,
      "perigee_km": 538.834176506055,
      "latitude_deg": -2.4462743649175727e-05,
      "longitude_deg": 12.706694648098274,
      "height_km": 540.6512979657344,
      "semi_major_axis_km": 6917.883714546841,
      "eccentricity": 0.00013191,
      "inclination_deg": 53.2189,
      "raan_deg": 40.4542,
      "arg_perigee_deg": 90.5436,
      "mean_anomaly_deg": 269.5707,
      "mean_motion_rev_day": 15.08838912
    },
    {
      "epoch": "2026-03-31T13:09:59.342400Z",
      "apogee_km": 540.6734134791523,
      "perigee_km": 538.7834526428387,
      "latitude_deg": 6.449486582080307e-05,
      "longitude_deg": 9.572191204811846,
      "height_km": 540.7006896750693,
      "semi_major_axis_km": 6917.865433060995,
      "eccentricity": 0.0001366,
      "inclination_deg": 53.2194,
      "raan_deg": 35.9938,
      "arg_perigee_deg": 94.6342,
      "mean_anomaly_deg": 265.4807,
      "mean_motion_rev_day": 15.08844893
    },
    {
      "epoch": "2026-04-01T13:00:47.613600Z",
      "apogee_km": 540.7053237155869,
      "perigee_km": 538.8278046882624,
      "latitude_deg": -5.2614578268774534e-05,
      "longitude_deg": 6.432424546388099,
      "height_km": 540.6550443596126,
      "semi_major_axis_km": 6917.903564201924,
      "eccentricity": 0.0001357,
      "inclination_deg": 53.2198,
      "raan_deg": 31.5346,
      "arg_perigee_deg": 89.5428,
      "mean_anomaly_deg": 270.5719,
      "mean_motion_rev_day": 15.08832418
    },
    {
      "epoch": "2026-04-02T19:13:06.119328Z",
      "apogee_km": 540.6640577284425,
      "perigee_km": 538.7313530684487,
      "latitude_deg": -1.9045398387297345e-05,
      "longitude_deg": -93.5343376144818,
      "height_km": 540.4878043847739,
      "semi_major_axis_km": 6917.834705398445,
      "eccentricity": 0.00013969,
      "inclination_deg": 53.2184,
      "raan_deg": 25.8854,
      "arg_perigee_deg": 83.7213,
      "mean_anomaly_deg": 276.3938,
      "mean_motion_rev_day": 15.08854946
    },
    {
      "epoch": "2026-04-03T04:45:25.148736Z",
      "apogee_km": 540.5869591793662,
      "perigee_km": 538.8494706635875,
      "latitude_deg": -3.1197867484706432e-06,
      "longitude_deg": 121.20794797620381,
      "height_km": 540.6198788681381,
      "semi_major_axis_km": 6917.8552149214765,
      "eccentricity": 0.00012558,
      "inclination_deg": 53.2175,
      "raan_deg": 24.0987,
      "arg_perigee_deg": 90.3825,
      "mean_anomaly_deg": 269.7311,
      "mean_motion_rev_day": 15.08848236
    },
    {
      "epoch": "2026-04-04T04:36:13.641984Z",
      "apogee_km": 540.700240126972,
      "perigee_km": 538.8317145327956,
      "latitude_deg": 5.9935455488219544e-05,
      "longitude_deg": 118.0656859872651,
      "height_km": 540.7990766022621,
      "semi_major_axis_km": 6917.9029773298835,
      "eccentricity": 0.00013505,
      "inclination_deg": 53.2186,
      "raan_deg": 19.6378,
      "arg_perigee_deg": 98.4475,
      "mean_anomaly_deg": 261.6671,
      "mean_motion_rev_day": 15.0883261
    },
    {
      "epoch": "2026-04-04T23:40:50.967264Z",
      "apogee_km": 540.6640572004189,
      "perigee_km": 538.8489403042167,
      "latitude_deg": -3.7694828489803395e-05,
      "longitude_deg": -172.44077533524492,
      "height_km": 540.6432514195094,
      "semi_major_axis_km": 6917.893498752317,
      "eccentricity": 0.00013119,
      "inclination_deg": 53.2186,
      "raan_deg": 16.0704,
      "arg_perigee_deg": 89.4222,
      "mean_anomaly_deg": 270.692,
      "mean_motion_rev_day": 15.08835711
    },
    {
      "epoch": "2026-04-06T01:07:00.727680Z",
      "apogee_km": 540.6481639336198,
      "perigee_km": 538.8431499907638,
      "latitude_deg": 3.061105077241139e-06,
      "longitude_deg": 160.2165634160258,
      "height_km": 540.5564951725426,
      "semi_major_axis_km": 6917.8826569621915,
      "eccentricity": 0.00013046,
      "inclination_deg": 53.2192,
      "raan_deg": 11.313,
      "arg_perigee_deg": 84.5865,
      "mean_anomaly_deg": 275.5276,
      "mean_motion_rev_day": 15.08839258
    },
    {
      "epoch": "2026-04-07T10:30:07.317216Z",
      "apogee_km": 540.7597983533233,
      "perigee_km": 538.7390837238972,
      "latitude_deg": 2.3167233317559276e-06,
      "longitude_deg": 11.824822857217052,
      "height_km": 540.5644603487906,
      "semi_major_axis_km": 6917.88644103861,
      "eccentricity": 0.00014605,
      "inclination_deg": 53.2203,
      "raan_deg": 5.0698,
      "arg_perigee_deg": 85.4095,
      "mean_anomaly_deg": 274.7064,
      "mean_motion_rev_day": 15.0883802
    },
    {
      "epoch": "2026-04-08T10:20:54.273408Z",
      "apogee_km": 540.7835074950699,
      "perigee_km": 538.6958306738734,
      "latitude_deg": 1.7684279959965037e-05,
      "longitude_deg": 8.68944460881456,
      "height_km": 540.5758981464585,
      "semi_major_axis_km": 6917.876669084471,
      "eccentricity": 0.00015089,
      "inclination_deg": 53.2204,
      "raan_deg": 0.6094,
      "arg_perigee_deg": 86.7273,
      "mean_anomaly_deg": 273.3892,
      "mean_motion_rev_day": 15.08841217
    },
    {
      "epoch": "2026-04-09T10:11:41.157888Z",
      "apogee_km": 540.7923398350449,
      "perigee_km": 538.6745029842341,
      "latitude_deg": -1.952194307070363e-05,
      "longitude_deg": 5.5542268814956195,
      "height_km": 540.5005394070513,
      "semi_major_axis_km": 6917.870421409639,
      "eccentricity": 0.00015307,
      "inclination_deg": 53.2203,
      "raan_deg": 356.1489,
      "arg_perigee_deg": 83.0201,
      "mean_anomaly_deg": 277.0965,
      "mean_motion_rev_day": 15.08843261
    },
    {
      "epoch": "2026-04-10T00:30:09.842400Z",
      "apogee_km": 540.7686919217058,
      "perigee_km": 538.7375993749438,
      "latitude_deg": -1.819543457334294e-05,
      "longitude_deg": 147.67069998150637,
      "height_km": 540.5317625244119,
      "semi_major_axis_km": 6917.8901456483245,
      "eccentricity": 0.0001468,
      "inclination_deg": 53.2197,
      "raan_deg": 353.4725,
      "arg_perigee_deg": 83.3729,
      "mean_anomaly_deg": 276.743,
      "mean_motion_rev_day": 15.08836808
    },
    {
      "epoch": "2026-04-11T09:53:15.527328Z",
      "apogee_km": 540.7599233942665,
      "perigee_km": 538.7302167949001,
      "latitude_deg": 2.6491642891466087e-05,
      "longitude_deg": -0.7190266092350427,
      "height_km": 540.5028285556308,
      "semi_major_axis_km": 6917.8820700945835,
      "eccentricity": 0.0001467,
      "inclination_deg": 53.22,
      "raan_deg": 347.2275,
      "arg_perigee_deg": 82.1794,
      "mean_anomaly_deg": 277.9365,
      "mean_motion_rev_day": 15.0883945
    },
    {
      "epoch": "2026-04-13T01:37:53.874624Z",
      "apogee_km": 540.7632823471431,
      "perigee_km": 538.725274522516,
      "latitude_deg": 1.1277815318741171e-05,
      "longitude_deg": 114.0541528151685,
      "height_km": 540.609429497586,
      "semi_major_axis_km": 6917.881278434829,
      "eccentricity": 0.0001473,
      "inclination_deg": 53.2189,
      "raan_deg": 339.7927,
      "arg_perigee_deg": 88.2816,
      "mean_anomaly_deg": 271.8345,
      "mean_motion_rev_day": 15.08839709
    },
    {
      "epoch": "2026-04-14T20:33:18.847296Z",
      "apogee_km": 540.7235191909904,
      "perigee_km": 538.7754423580036,
      "latitude_deg": -1.0857873598716803e-05,
      "longitude_deg": -179.59192435910117,
      "height_km": 540.582924532629,
      "semi_major_axis_km": 6917.886480774497,
      "eccentricity": 0.0001408,
      "inclination_deg": 53.2178,
      "raan_deg": 331.7635,
      "arg_perigee_deg": 86.3361,
      "mean_anomaly_deg": 273.7792,
      "mean_motion_rev_day": 15.08838007
    },
    {
      "epoch": "2026-04-15T20:24:06.187104Z",
      "apogee_km": 540.7810932953353,
      "perigee_km": 538.7375467224047,
      "latitude_deg": -2.6895863430280943e-05,
      "longitude_deg": 177.27217616653238,
      "height_km": 540.6289960676839,
      "semi_major_axis_km": 6917.896320008869,
      "eccentricity": 0.0001477,
      "inclination_deg": 53.2185,
      "raan_deg": 327.3042,
      "arg_perigee_deg": 88.5426,
      "mean_anomaly_deg": 271.5735,
      "mean_motion_rev_day": 15.08834788
    }
  ]
}